NORAD_CAT_ID,OBJECT_NAME,OBJECT_TYPE,EPOCH,MEAN_MOTION,ECCENTRICITY,INCLINATION,RA_OF_ASC_NODE,ARG_OF_PERICENTER,MEAN_ANOMALY,BSTAR,MEAN_MOTION_DOT,MEAN_MOTION_DDOT,TLE_LINE0,TLE_LINE1,TLE_LINE2,SEMIMAJOR_AXIS,PERIOD,APOGEE,PERIGEE,DECAYED
53783.0,STARLINK-4536,PAYLOAD,2023-08-09 00:13:32,15.08833506,0.0001267,53.2166,190.3846,94.5375,265.5762,1.3513e-05,-7.3e-07,0.0,0 STARLINK-4536,1 53783U 22111L   23221.00939861 -.00000073  00000-0  13513-4 0  9997,2 53783  53.2166 190.3846 0001267  94.5375 265.5762 15.08833506 50424,6917.9,95.438,540.642,538.889,0.0
53783.0,STARLINK-4536,PAYLOAD,2023-08-09 08:10:27,15.0883951,0.000142,53.2159,188.898,93.0812,267.0342,4.707e-05,4.61e-06,0.0,0 STARLINK-4536,1 53783U 22111L   23221.34059412  .00000461  00000-0  47070-4 0  9994,2 53783  53.2159 188.8980 0001420  93.0812 267.0342 15.08839510 50475,6917.882,95.438,540.729,538.765,0.0
53783.0,STARLINK-4536,PAYLOAD,2023-08-10 14:22:47,15.08839591,0.000119,53.2159,183.247,88.8807,271.2321,-2.4848e-05,-6.83e-06,0.0,0 STARLINK-4536,1 53783U 22111L   23222.59915795 -.00000683  00000-0 -24848-4 0  9993,2 53783  53.2159 183.2470 0001190  88.8807 271.2321 15.08839591 50662,6917.882,95.438,540.57,538.923,0.0
53783.0,STARLINK-4536,PAYLOAD,2023-08-12 02:56:39,15.08835067,0.0001371,53.2161,176.4091,83.4435,276.6713,6.4212e-05,7.34e-06,0.0,0 STARLINK-4536,1 53783U 22111L   23224.12268411  .00000734  00000-0  64212-4 0  9994,2 53783  53.2161 176.4091 0001371  83.4435 276.6713 15.08835067 50890,6917.895,95.438,540.709,538.812,0.0
53783.0,STARLINK-4536,PAYLOAD,2023-08-13 02:47:25,15.08861492,0.0001807,53.2165,171.9484,83.1223,276.9975,0.0002102,3.061e-05,0.0,0 STARLINK-4536,1 53783U 22111L   23225.11626176  .00003061  00000-0  21020-3 0  9995,2 53783  53.2165 171.9484 0001807  83.1223 276.9975 15.08861492 51048,6917.815,95.436,540.93,538.43,0.0
53783.0,STARLINK-4536,PAYLOAD,2023-08-13 07:33:33,15.0887324,0.0001424,53.2171,171.0564,87.0266,273.0889,0.00027367,4.074e-05,0.0,0 STARLINK-4536,1 53783U 22111L   23225.31496897  .00004074  00000-0  27367-3 0  9997,2 53783  53.2171 171.0564 0001424  87.0266 273.0889 15.08873240 51079,6917.779,95.435,540.629,538.659,0.0
53783.0,STARLINK-4536,PAYLOAD,2023-08-14 02:38:13,15.08831198,0.0001186,53.217,167.4882,79.6356,280.4769,-2.3284e-06,-3.25e-06,0.0,0 STARLINK-4536,1 53783U 22111L   23226.10988343 -.00000325  00000-0 -23284-5 0  9990,2 53783  53.2170 167.4882 0001186  79.6356 280.4769 15.08831198 51190,6917.907,95.438,540.593,538.952,0.0
53783.0,STARLINK-4536,PAYLOAD,2023-08-15 02:29:00,15.08853031,0.0001279,53.2166,163.026,89.9549,270.159,-0.00014376,-2.576e-05,0.0,0 STARLINK-4536,1 53783U 22111L   23227.10347422 -.00002576  00000-0 -14376-3 0  9998,2 53783  53.2166 163.0260 0001279  89.9549 270.1590 15.08853031 51343,6917.841,95.437,540.59,538.821,0.0
53783.0,STARLINK-4536,PAYLOAD,2023-08-16 02:19:47,15.08838361,0.0001263,53.2164,158.565,83.6069,276.5067,9.2842e-05,1.19e-05,0.0,0 STARLINK-4536,1 53783U 22111L   23228.09707983  .00001190  00000-0  92842-4 0  9993,2 53783  53.2164 158.5650 0001263  83.6069 276.5067 15.08838361 51498,6917.885,95.438,540.624,538.877,0.0
53783.0,STARLINK-4536,PAYLOAD,2023-08-18 02:01:22,15.08842862,0.0001678,53.2177,149.6494,108.2097,251.9078,-1.8912e-06,-3.18e-06,0.0,0 STARLINK-4536,1 53783U 22111L   23230.08428572 -.00000318  00000-0 -18912-5 0  9999,2 53783  53.2177 149.6494 0001678 108.2097 251.9078 15.08842862 51797,6917.872,95.437,540.897,538.576,0.0
53783.0,STARLINK-4536,PAYLOAD,2023-08-19 03:27:32,15.08845724,0.0001399,53.2173,144.8885,86.0365,274.0787,0.00012093,1.637e-05,0.0,0 STARLINK-4536,1 53783U 22111L   23231.14412352  .00001637  00000-0  12093-3 0  9991,2 53783  53.2173 144.8885 0001399  86.0365 274.0787 15.08845724 51956,6917.863,95.437,540.696,538.76,0.0
53783.0,STARLINK-4536,PAYLOAD,2023-08-20 03:18:19,15.08843867,0.0001473,53.2171,140.4274,89.0939,271.0222,6.6732e-05,7.74e-06,0.0,0 STARLINK-4536,1 53783U 22111L   23232.13772808  .00000774  00000-0  66732-4 0  9997,2 53783  53.2171 140.4274 0001473  89.0939 271.0222 15.08843867 52106,6917.869,95.437,540.753,538.715,0.0
53783.0,STARLINK-4536,PAYLOAD,2023-08-21 20:38:21,15.0884295,0.0001492,53.2175,132.6958,83.4349,276.6813,5.3139e-05,5.58e-06,0.0,0 STARLINK-4536,1 53783U 22111L   23233.85997129  .00000558  00000-0  53139-4 0  9999,2 53783  53.2175 132.6958 0001492  83.4349 276.6813 15.08842950 52363,6917.871,95.437,540.769,538.704,0.0
53783.0,STARLINK-4536,PAYLOAD,2023-08-22 23:39:55,15.08840987,0.0001492,53.2171,127.6412,78.4388,281.6771,-1.974e-05,-6.02e-06,0.0,0 STARLINK-4536,1 53783U 22111L   23234.98605417 -.00000602  00000-0 -19740-4 0  9992,2 53783  53.2171 127.6412 0001492  78.4388 281.6771 15.08840987 52531,6917.877,95.437,540.775,538.71,0.0
53783.0,STARLINK-4536,PAYLOAD,2023-08-24 02:41:28,15.08834844,0.0001219,53.2172,122.5838,72.7782,287.3344,0.00020061,2.906e-05,0.0,0 STARLINK-4536,1 53783U 22111L   23236.11213156  .00002906  00000-0  20061-3 0  9998,2 53783  53.2172 122.5838 0001219  72.7782 287.3344 15.08834844 53513,6917.896,95.438,540.604,538.918,0.0
53783.0,STARLINK-4536,PAYLOAD,2023-08-25 20:01:30,15.08836346,0.0001062,53.2171,114.8541,106.5782,253.5327,-3.298e-05,-8.13e-06,0.0,0 STARLINK-4536,1 53783U 22111L   23237.83437839 -.00000813  00000-0 -32980-4 0  9995,2 53783  53.2171 114.8541 0001062 106.5782 253.5327 15.08836346 53772,6917.892,95.438,540.491,539.022,0.0
53783.0,STARLINK-4536,PAYLOAD,2023-08-26 00:47:38,15.08847448,0.0001082,53.217,113.9619,102.13,257.9813,6.5508e-05,7.55e-06,0.0,0 STARLINK-4536,1 53783U 22111L   23238.03308896  .00000755  00000-0  65508-4 0  9993,2 53783  53.2170 113.9619 0001082 102.1300 257.9813 15.08847448 52993,6917.858,95.437,540.471,538.974,0.0
53783.0,STARLINK-4536,PAYLOAD,2023-08-26 18:16:54,15.08838724,0.0001284,53.217,110.6917,87.003,273.1109,-9.0865e-06,-4.32e-06,0.0,0 STARLINK-4536,1 53783U 22111L   23238.76174138 -.00000432  00000-0 -90865-5 0  9992,2 53783  53.2170 110.6917 0001284  87.0030 273.1109 15.08838724 53102,6917.884,95.438,540.638,538.861,0.0
53783.0,STARLINK-4536,PAYLOAD,2023-08-26 21:27:40,15.08839541,0.0001286,53.2172,110.0972,86.1364,273.9775,-6.1714e-06,-3.86e-06,0.0,0 STARLINK-4536,1 53783U 22111L   23238.89422067 -.00000386  00000-0 -61714-5 0  9992,2 53783  53.2172 110.0972 0001286  86.1364 273.9775 15.08839541 53937,6917.882,95.438,540.636,538.857,0.0
53783.0,STARLINK-4536,PAYLOAD,2023-08-27 00:38:26,15.0884484,0.0001055,53.2166,109.501,86.2241,273.8872,1.4973e-05,-4.9e-07,0.0,0 STARLINK-4536,1 53783U 22111L   23239.02669682 -.00000049  00000-0  14973-4 0  9993,2 53783  53.2166 109.5010 0001055  86.2241 273.8872 15.08844840 53952,6917.866,95.437,540.46,539.001,0.0
53783.0,STARLINK-4536,PAYLOAD,2023-08-27 21:18:27,15.08842509,0.0001231,53.2168,105.636,80.427,279.6861,1.0735e-05,-1.17e-06,0.0,0 STARLINK-4536,1 53783U 22111L   23239.88781711 -.00000117  00000-0  10735-4 0  9993,2 53783  53.2168 105.6360 0001231  80.4270 279.6861 15.08842509 54080,6917.873,95.437,540.589,538.886,0.0
53783.0,STARLINK-4536,PAYLOAD,2023-08-28 08:26:09,15.08842602,0.0001074,53.2167,103.5539,80.3164,279.795,-5.9082e-06,-3.82e-06,0.0,0 STARLINK-4536,1 53783U 22111L   23240.35149607 -.00000382  00000-0 -59082-5 0  9993,2 53783  53.2167 103.5539 0001074  80.3164 279.7950 15.08842602 53342,6917.872,95.437,540.48,538.994,0.0
53783.0,STARLINK-4536,PAYLOAD,2023-08-28 21:09:14,15.08837096,0.0001342,53.2169,101.1749,91.5541,268.5605,-9.7166e-06,-4.43e-06,0.0,0 STARLINK-4536,1 53783U 22111L   23240.88142076 -.00000443  00000-0 -97166-5 0  9997,2 53783  53.2169 101.1749 0001342  91.5541 268.5605 15.08837096 54235,6917.889,95.438,540.683,538.826,0.0
53783.0,STARLINK-4536,PAYLOAD,2023-08-29 19:24:38,15.08842821,0.0001246,53.2172,97.011,109.969,250.1437,-4.2417e-06,-3.55e-06,0.0,0 STARLINK-4536,1 53783U 22111L   23241.80877740 -.00000355  00000-0 -42417-5 0  9994,2 53783  53.2172  97.0110 0001246 109.9690 250.1437 15.08842821 54373,6917.872,95.437,540.599,538.875,0.0
53783.0,STARLINK-4536,PAYLOAD,2023-08-30 00:10:47,15.08845381,0.0001284,53.2175,96.1195,93.4221,266.6918,4.2571e-05,3.9e-06,0.0,0 STARLINK-4536,1 53783U 22111L   23242.00749470  .00000390  00000-0  42571-4 0  9992,2 53783  53.2175  96.1195 0001284  93.4221 266.6918 15.08845381 53591,6917.864,95.437,540.617,538.841,0.0
53783.0,STARLINK-4536,PAYLOAD,2023-08-31 00:01:34,15.08838882,0.0001324,53.2175,91.6587,95.4414,264.6729,2.6786e-05,1.38e-06,0.0,0 STARLINK-4536,1 53783U 22111L   23243.00109943  .00000138  00000-0  26786-4 0  9998,2 53783  53.2175  91.6587 0001324  95.4414 264.6729 15.08838882 53740,6917.884,95.438,540.665,538.833,0.0
53783.0,STARLINK-4536,PAYLOAD,2023-09-01 06:13:55,15.08837711,0.0001575,53.2182,86.0088,78.3679,281.749,-3.287e-06,-3.4e-06,0.0,0 STARLINK-4536,1 53783U 22111L   23244.25966562 -.00000340  00000-0 -32870-5 0  9993,2 53783  53.2182  86.0088 0001575  78.3679 281.7490 15.08837711 53939,6917.887,95.438,540.842,538.663,0.0
53783.0,STARLINK-4536,PAYLOAD,2023-09-01 14:10:50,15.08834143,0.0001331,53.2181,84.521,84.4685,275.6459,6.8212e-05,7.98e-06,0.0,0 STARLINK-4536,1 53783U 22111L   23244.59086452  .00000798  00000-0  68212-4 0  9994,2 53783  53.2181  84.5210 0001331  84.4685 275.6459 15.08834143 54791,6917.898,95.438,540.684,538.843,0.0
53783.0,STARLINK-4536,PAYLOAD,2023-09-01 20:32:22,15.08840613,0.0001524,53.2181,83.3323,78.4448,281.6715,0.00011237,1.501e-05,0.0,0 STARLINK-4536,1 53783U 22111L   23244.85582046  .00001501  00000-0  11237-3 0  9990,2 53783  53.2181  83.3323 0001524  78.4448 281.6715 15.08840613 54833,6917.879,95.438,540.798,538.689,0.0
53783.0,STARLINK-4536,PAYLOAD,2023-09-02 06:04:42,15.08831612,0.0001469,53.2177,81.5482,80.0141,280.1017,3.0204e-05,1.93e-06,0.0,0 STARLINK-4536,1 53783U 22111L   23245.25326980  .00000193  00000-0  30204-4 0  9990,2 53783  53.2177  81.5482 0001469  80.0141 280.1017 15.08831612 54895,6917.906,95.438,540.787,538.755,0.0
